OBJECT_NAME,OBJECT_ID,EPOCH,MEAN_MOTION,ECCENTRICITY,INCLINATION,RA_OF_ASC_NODE,ARG_OF_PERICENTER,MEAN_ANOMALY,EPHEMERIS_TYPE,CLASSIFICATION_TYPE,NORAD_CAT_ID,ELEMENT_SET_NO,REV_AT_EPOCH,BSTAR,MEAN_MOTION_DOT,MEAN_MOTION_DDOT
FM-6,2013-058A,2026-07-17T00:43:18.265728,1.00271340,.00015151,0.0136,35.2929,146.7149,7.3125,0,U,39360,999,4637,0,-.26E-6,0
RADUGA-1M 3,2013-062A,2026-07-17T06:35:46.885344,1.00271603,.00019829,6.0334,71.9665,277.6667,79.3829,0,U,39375,999,4640,0,.14E-5,0
SES-8,2013-071A,2026-07-17T06:52:45.257088,1.00271912,.000268,0.0509,253.6326,219.3133,20.3410,0,U,39460,999,4473,0,-.279E-5,0
INMARSAT 5-F1,2013-073A,2026-07-17T01:35:44.609856,1.00273579,.00001731,0.0165,50.4759,267.9374,63.0421,0,U,39476,999,4587,0,.17E-6,0
TKSAT-1 (TUPAC KATARI),2013-075A,2026-07-17T06:00:57.722112,1.00270233,.00024575,0.0291,227.8787,243.3280,186.8933,0,U,39481,999,4590,0,-.204E-5,0
EXPRESS-AM5,2013-077A,2026-07-17T07:05:44.013120,1.00270045,.00000838,0.0273,281.8428,212.0869,47.6506,0,U,39487,999,4666,0,-.29E-5,0
GSAT-14,2014-001A,2026-07-17T03:48:38.629152,1.00271188,.00019445,0.0153,87.5353,122.3390,216.2237,0,U,39498,999,4567,0,-.87E-6,0
THAICOM 6,2014-002A,2026-07-17T03:22:54.037344,1.00272768,.00043445,0.0528,109.1468,16.5807,298.4561,0,U,39500,999,4575,0,-.131E-5,0
TDRS 12,2014-004A,2026-07-17T06:14:11.453856,1.00272020,.00043142,4.0073,19.5782,202.8842,125.3049,0,U,39504,999,4457,0,-.28E-5,0
ABS-2,2014-006A,2026-07-17T03:48:38.629152,1.00269792,.00034507,0.0216,55.4805,46.1055,325.4801,0,U,39508,999,4557,0,0,0
ATHENA-FIDUS,2014-006B,2026-07-17T01:28:37.792128,1.00272667,.00013693,0.0284,100.2587,18.8159,235.7565,0,U,39509,999,4538,0,.144E-5,0
TURKSAT 4A,2014-007A,2026-07-17T06:37:46.692768,1.00274514,.00013261,0.0902,278.3399,319.0545,199.1644,0,U,39522,999,4527,0,.136E-5,0
EXPRESS-AT1,2014-010A,2026-07-17T03:56:38.569056,1.00309454,.00044287,0.3330,85.2947,56.8165,278.1871,0,U,39612,999,4511,0,-.21E-6,0
EXPRESS-AT2,2014-010B,2026-07-17T04:39:38.704608,1.00270574,.00001964,0.0193,51.8538,15.1162,353.9592,0,U,39613,999,4479,0,0,0
AMAZONAS 4A,2014-011A,2026-07-17T04:22:00.202656,1.00269091,.00048243,0.0596,188.9989,310.0881,147.3964,0,U,39616,999,4501,0,-.262E-5,0
ASTRA 5B,2014-011B,2026-07-17T06:32:32.195904,1.00269190,.00019434,0.0722,304.2673,179.8966,292.5200,0,U,39617,999,4496,0,.127E-5,0
IRNSS-1B,2014-017A,2026-07-17T04:39:38.704608,1.00276401,.00222645,28.8725,239.8858,191.8676,348.3411,0,U,39635,999,4509,0,.121E-5,0
LUCH-5V,2014-023A,2026-07-17T02:27:21.681792,1.00272952,.00020731,5.2049,69.4291,85.1084,271.9565,0,U,39727,999,4465,0,-.281E-5,0
KAZSAT-3,2014-023B,2026-07-17T04:39:38.704608,1.00271862,.00000903,0.0098,10.6462,10.1216,42.6437,0,U,39728,999,4275,0,.51E-6,0
EUTELSAT 3B,2014-030A,2026-07-17T06:26:40.257600,1.00271589,.00041881,0.0612,6.9582,108.8844,278.9921,0,U,39773,999,4436,0,.1E-6,0
ASIASAT 8 (AMOS-7),2014-046A,2026-07-17T06:55:52.458240,1.00273070,.00015265,0.0156,56.0275,43.3270,45.0180,0,U,40107,999,10245,0,-.343E-5,0
OPTUS 10,2014-054A,2026-07-16T20:54:24.056928,1.00270151,.00017872,0.0876,45.0717,63.9839,295.2441,0,U,40146,999,4332,0,-.158E-5,0
MEASAT-3B,2014-054B,2026-07-17T06:51:45.353376,1.00272962,.00028253,0.0247,353.8087,83.9607,51.7835,0,U,40147,999,4321,0,-.252E-5,0
HIMAWARI-8,2014-060A,2026-07-17T07:05:51.501408,1.00270919,.00011495,0.0173,29.0357,137.0277,16.1819,0,U,40267,999,4306,0,-.286E-5,0
IRNSS-1C,2014-061A,2026-07-15T19:57:21.752928,1.00272233,.00220694,6.5880,88.3869,5.5373,222.1370,0,U,40269,999,4297,0,-.176E-5,0
INTELSAT 30 (IS-30),2014-062A,2026-07-17T05:58:42.937248,1.00274421,.00015552,0.0190,56.6019,335.0842,258.0090,0,U,40271,999,709,0,-.161E-5,0
ARSAT 1,2014-062B,2026-07-17T06:05:19.802688,1.00272674,.0001842,0.0597,272.3217,196.0299,206.2343,0,U,40272,999,4292,0,-.27E-5,0
EUTELSAT 53A,2014-064A,2026-07-17T06:35:38.864832,1.00272724,.00017864,0.0167,4.5585,195.5279,246.9172,0,U,40277,999,4187,0,.88E-6,0
GSAT-16,2014-078A,2026-07-16T20:25:34.320288,1.00270255,.00075089,0.0227,60.5515,34.4329,201.1845,0,U,40332,999,4240,0,0,0
DIRECTV 14,2014-078B,2026-07-16T20:29:44.349792,1.00271035,.00005216,0.0102,43.3103,316.5446,143.0174,0,U,40333,999,4234,0,-.136E-5,0
YAMAL 401,2014-082A,2026-07-17T03:26:08.725920,1.00270354,.00004052,0.0157,105.2530,11.3958,319.7792,0,U,40345,999,4221,0,-.238E-5,0
