FM-6                    
1 39360U 13058A   26198.03007252 -.00000026  00000+0  00000+0 0  9990
2 39360   0.0136  35.2929 0001515 146.7149   7.3125  1.00271340 46373
RADUGA-1M 3             
1 39375U 13062A   26198.27484821  .00000140  00000+0  00000+0 0  9994
2 39375   6.0334  71.9665 0001982 277.6667  79.3829  1.00271603 46402
SES-8                   
1 39460U 13071A   26198.28663492 -.00000279  00000+0  00000+0 0  9997
2 39460   0.0509 253.6326 0002680 219.3133  20.3410  1.00271912 44734
INMARSAT 5-F1           
1 39476U 13073A   26198.06648854  .00000017  00000+0  00000+0 0  9996
2 39476   0.0165  50.4759 0000173 267.9374  63.0421  1.00273579 45876
TKSAT-1 (TUPAC KATARI)  
1 39481U 13075A   26198.25066808 -.00000204  00000+0  00000+0 0  9997
2 39481   0.0291 227.8787 0002457 243.3280 186.8933  1.00270233 45904
EXPRESS-AM5             
1 39487U 13077A   26198.29564830 -.00000290  00000+0  00000+0 0  9992
2 39487   0.0273 281.8428 0000083 212.0869  47.6506  1.00270045 46666
GSAT-14                 
1 39498U 14001A   26198.15878043 -.00000087  00000+0  00000+0 0  9995
2 39498   0.0153  87.5353 0001944 122.3390 216.2237  1.00271188 45676
THAICOM 6               
1 39500U 14002A   26198.14090321 -.00000131  00000+0  00000+0 0  9994
2 39500   0.0528 109.1468 0004344  16.5807 298.4561  1.00272768 45754
TDRS 12                 
1 39504U 14004A   26198.25985479 -.00000280  00000+0  00000+0 0  9994
2 39504   4.0073  19.5782 0004314 202.8842 125.3049  1.00272020 44575
ABS-2                   
1 39508U 14006A   26198.15878043  .00000000  00000+0  00000+0 0  9996
2 39508   0.0216  55.4805 0003450  46.1055 325.4801  1.00269792 45576
ATHENA-FIDUS            
1 39509U 14006B   26198.06154852  .00000144  00000+0  00000+0 0  9991
2 39509   0.0284 100.2587 0001369  18.8159 235.7565  1.00272667 45380
TURKSAT 4A              
1 39522U 14007A   26198.27623487  .00000136  00000+0  00000+0 0  9996
2 39522   0.0902 278.3399 0001326 319.0545 199.1644  1.00274514 45270
EXPRESS-AT1             
1 39612U 14010A   26198.16433529 -.00000021  00000+0  00000+0 0  9998
2 39612   0.3330  85.2947 0004428  56.8165 278.1871  1.00309454 45117
EXPRESS-AT2             
1 39613U 14010B   26198.19419797  .00000000  00000+0  00000+0 0  9999
2 39613   0.0193  51.8538 0000196  15.1162 353.9592  1.00270574 44795
AMAZONAS 4A             
1 39616U 14011A   26198.18194679 -.00000262  00000+0  00000+0 0  9992
2 39616   0.0596 188.9989 0004824 310.0881 147.3964  1.00269091 45010
ASTRA 5B                
1 39617U 14011B   26198.27259486  .00000127  00000+0  00000+0 0  9990
2 39617   0.0722 304.2673 0001943 179.8966 292.5200  1.00269190 44968
IRNSS-1B                
1 39635U 14017A   26198.19419797  .00000121  00000+0  00000+0 0  9994
2 39635  28.8725 239.8858 0022264 191.8676 348.3411  1.00276401 45090
LUCH-5V                 
1 39727U 14023A   26198.10233428 -.00000281  00000+0  00000+0 0  9997
2 39727   5.2049  69.4291 0002073  85.1084 271.9565  1.00272952 44651
KAZSAT-3                
1 39728U 14023B   26198.19419797  .00000051  00000+0  00000+0 0  9996
2 39728   0.0098  10.6462 0000090  10.1216  42.6437  1.00271862 42758
EUTELSAT 3B             
1 39773U 14030A   26198.26852150  .00000010  00000+0  00000+0 0  9991
2 39773   0.0612   6.9582 0004188 108.8844 278.9921  1.00271589 44362
ASIASAT 8 (AMOS-7)      
1 40107U 14046A   26198.28880160 -.00000343  00000+0  00000+0 0  9995
2 40107   0.0156  56.0275 0001526  43.3270  45.0180  1.00273070102454
OPTUS 10                
1 40146U 14054A   26197.87111177 -.00000158  00000+0  00000+0 0  9990
2 40146   0.0876  45.0717 0001787  63.9839 295.2441  1.00270151 43329
MEASAT-3B               
1 40147U 14054B   26198.28594159 -.00000252  00000+0  00000+0 0  9997
2 40147   0.0247 353.8087 0002825  83.9607  51.7835  1.00272962 43213
HIMAWARI-8              
1 40267U 14060A   26198.29573497 -.00000286  00000+0  00000+0 0  9997
2 40267   0.0173  29.0357 0001149 137.0277  16.1819  1.00270919 43068
IRNSS-1C                
1 40269U 14061A   26196.83150177 -.00000176  00000+0  00000+0 0  9992
2 40269   6.5880  88.3869 0022069   5.5373 222.1370  1.00272233 42973
INTELSAT 30 (IS-30)     
1 40271U 14062A   26198.24910807 -.00000161  00000+0  00000+0 0  9991
2 40271   0.0190  56.6019 0001555 335.0842 258.0090  1.00274421  7095
ARSAT 1                 
1 40272U 14062B   26198.25370142 -.00000270  00000+0  00000+0 0  9996
2 40272   0.0597 272.3217 0001842 196.0299 206.2343  1.00272674 42929
EUTELSAT 53A            
1 40277U 14064A   26198.27475538  .00000088  00000+0  00000+0 0  9996
2 40277   0.0167   4.5585 0001786 195.5279 246.9172  1.00272724 41879
GSAT-16                 
1 40332U 14078A   26197.85109167  .00000000  00000+0  00000+0 0  9992
2 40332   0.0227  60.5515 0007508  34.4329 201.1845  1.00270255 42405
DIRECTV 14              
1 40333U 14078B   26197.85398553 -.00000136  00000+0  00000+0 0  9993
2 40333   0.0102  43.3103 0000521 316.5446 143.0174  1.00271035 42341
YAMAL 401               
1 40345U 14082A   26198.14315655 -.00000238  00000+0  00000+0 0  9999
2 40345   0.0157 105.2530 0000405  11.3958 319.7792  1.00270354 42212
